GOMX-1                  
1 39430U 13066Q   26177.10607637  .00001851  00000+0  28189-3 0  9993
2 39430  97.6486  17.0060 0129845  49.2490 311.9902 14.69488396671223
CUBEBUG-2 (LO-74)       
1 39440U 13066AA  26176.83815360  .00004524  00000+0  41819-3 0  9992
2 39440  97.8903 125.8528 0057564   0.5259 359.6011 14.93829236678280
NEE-02 KRYSAOR          
1 39441U 13066AB  26176.55526841  .00002568  00000+0  28387-3 0  9996
2 39441  97.8891 115.7100 0067228  43.3544 317.2932 14.86653035677444
FUNCUBE-1 (AO-73)       
1 39444U 13066AE  26177.20421799  .00008222  00000+0  50781-3 0  9994
2 39444  97.8271 148.8384 0036563 170.3279 189.8662 15.09588977681024
UWE-3                   
1 39446U 13066AG  26176.83787144  .00004431  00000+0  38106-3 0  9998
2 39446  97.8708 132.9703 0046808 291.8607  67.7640 14.97092153678878
SMDC ONE 2.4            
1 39469U 13072H   26177.15786066  .00012150  00000+0  45618-3 0  9991
2 39469 120.4940  26.7231 0146529  28.5332 332.3670 15.18350041119197
COSMOS 2488 (RODNIK-S 7)
1 39483U 13076A   26177.21434721  .00000031  00000+0  15340-3 0  9990
2 39483  82.4833 163.0706 0020886  76.6796 283.6611 12.42905887567017
COSMOS 2489 (RODNIK-S 8)
1 39484U 13076B   26177.18973875  .00000035  00000+0  18335-3 0  9996
2 39484  82.4868 164.4677 0022699  76.6711 283.6898 12.42879608567062
COSMOS 2490 (RODNIK-S 9)
1 39485U 13076C   26177.24213935  .00000098  00000+0  63349-3 0  9992
2 39485  82.4815 162.4985 0022863  91.3297 269.0402 12.42878726567004
KAZEOSAT 1              
1 39731U 14024A   26177.18045432  .00000096  00000+0  42151-4 0  9995
2 39731  98.3206 249.4041 0001219  75.6919 284.4406 14.42082983639857
COSMOS 2496 (RODNIK-S *)
1 39761U 14028A   26177.19964750  .00000031  00000+0  15124-3 0  9994
2 39761  82.4451 103.0866 0021320  60.2729 300.0468 12.42878972548637
COSMOS 2497 (RODNIK-S *)
1 39762U 14028B   26177.17481388  .00000040  00000+0  21497-3 0  9994
2 39762  82.4499 104.7954 0021842  55.6175 304.6966 12.42894718548637
COSMOS 2498 (RODNIK-S *)
1 39763U 14028C   26177.15179391  .00000005  00000+0 -34093-4 0  9990
2 39763  82.4460 103.2930 0022558  55.2220 305.0978 12.42980447548662
HODOYOSHI-4             
1 40011U 14033B   26177.17867162  .00000870  00000+0  99770-4 0  9998
2 40011  97.5456   1.5671 0022142 276.8346  83.0353 14.88143934650144
UNISAT-6                
1 40012U 14033C   26177.14258198  .00002527  00000+0  27418-3 0  9999
2 40012  97.7883 329.6973 0045756  40.5030 319.9578 14.88286575647495
DEIMOS-2                
1 40013U 14033D   26177.22650740  .00001097  00000+0  10868-3 0  9990
2 40013  97.5830  51.3978 0001307  53.6740 306.4600 14.93749309639074
BUGSAT-1 (TITA)         
1 40014U 14033E   26177.08108677  .00007052  00000+0  37061-3 0  9993
2 40014  98.0426 270.1505 0028658 148.3898 211.9061 15.15677577657188
SAUDISAT 4              
1 40016U 14033G   26176.97829207  .00000570  00000+0  81739-4 0  9991
2 40016  97.7592 322.8092 0045789  46.1738 314.3245 14.79554971647371
APRIZESAT 9             
1 40018U 14033J   26177.16698986  .00000745  00000+0  11654-3 0  9995
2 40018  97.9070 310.1466 0066400 170.2639 189.9875 14.74226706644888
BRITE-CA1 (TORONTO)     
1 40020U 14033L   26176.93850303  .00000793  00000+0  12688-3 0  9996
2 40020  97.9748 305.7055 0077307 248.4979 110.7974 14.72689124643505
DUCHIFAT-1              
1 40021U 14033M   26176.71541039  .00141113  00000+0  13462-2 0  9998
2 40021  98.0450 237.0839 0001518 101.6443 258.4986 15.66313669657085
NANOSATC-BR1            
1 40024U 14033Q   26177.02544975  .00019699  00000+0  64467-3 0  9993
2 40024  98.0722 210.1973 0005106 141.8822 218.2780 15.31726656655333
QB50P1                  
1 40025U 14033R   26176.98118250  .00009982  00000+0  48855-3 0  9998
2 40025  98.0964 188.7440 0008708 184.1181 175.9981 15.18384896654365
