OBJECT_NAME,OBJECT_ID,EPOCH,MEAN_MOTION,ECCENTRICITY,INCLINATION,RA_OF_ASC_NODE,ARG_OF_PERICENTER,MEAN_ANOMALY,EPHEMERIS_TYPE,CLASSIFICATION_TYPE,NORAD_CAT_ID,ELEMENT_SET_NO,REV_AT_EPOCH,BSTAR,MEAN_MOTION_DOT,MEAN_MOTION_DDOT
GOMX-1,2013-066Q,2026-06-26T02:32:44.998368,14.69488396,.0129845,97.6486,17.0060,49.2490,311.9902,0,U,39430,999,67122,.28189E-3,.1851E-4,0
CUBEBUG-2 (LO-74),2013-066AA,2026-06-25T20:06:56.471040,14.93829236,.0057564,97.8903,125.8528,0.5259,359.6011,0,U,39440,999,67828,.41819E-3,.4524E-4,0
NEE-02 KRYSAOR,2013-066AB,2026-06-25T13:19:35.190624,14.86653035,.0067228,97.8891,115.7100,43.3544,317.2932,0,U,39441,999,67744,.28387E-3,.2568E-4,0
FUNCUBE-1 (AO-73),2013-066AE,2026-06-26T04:54:04.434336,15.09588977,.0036563,97.8271,148.8384,170.3279,189.8662,0,U,39444,999,68102,.50781E-3,.8222E-4,0
UWE-3,2013-066AG,2026-06-25T20:06:32.092416,14.97092153,.0046808,97.8708,132.9703,291.8607,67.7640,0,U,39446,999,67887,.38106E-3,.4431E-4,0
SMDC ONE 2.4,2013-072H,2026-06-26T03:47:19.161024,15.18350041,.0146529,120.4940,26.7231,28.5332,332.3670,0,U,39469,999,11919,.45618E-3,.1215E-3,0
COSMOS 2488 (RODNIK-S 7),2013-076A,2026-06-26T05:08:39.598944,12.42905887,.0020886,82.4833,163.0706,76.6796,283.6611,0,U,39483,999,56701,.1534E-3,.31E-6,0
COSMOS 2489 (RODNIK-S 8),2013-076B,2026-06-26T04:33:13.428000,12.42879608,.0022699,82.4868,164.4677,76.6711,283.6898,0,U,39484,999,56706,.18335E-3,.35E-6,0
COSMOS 2490 (RODNIK-S 9),2013-076C,2026-06-26T05:48:40.839840,12.42878726,.0022863,82.4815,162.4985,91.3297,269.0402,0,U,39485,999,56700,.63349E-3,.98E-6,0
KAZEOSAT 1,2014-024A,2026-06-26T04:19:51.253248,14.42082983,.0001219,98.3206,249.4041,75.6919,284.4406,0,U,39731,999,63985,.42151E-4,.96E-6,0
COSMOS 2496 (RODNIK-S 10),2014-028A,2026-06-26T04:47:29.544000,12.42878972,.002132,82.4451,103.0866,60.2729,300.0468,0,U,39761,999,54863,.15124E-3,.31E-6,0
COSMOS 2497 (RODNIK-S 11),2014-028B,2026-06-26T04:11:43.919232,12.42894718,.0021842,82.4499,104.7954,55.6175,304.6966,0,U,39762,999,54863,.21497E-3,.4E-6,0
COSMOS 2498 (RODNIK-S 12),2014-028C,2026-06-26T03:38:34.993824,12.42980447,.0022558,82.4460,103.2930,55.2220,305.0978,0,U,39763,999,54866,-.34093E-4,.5E-7,0
HODOYOSHI-4,2014-033B,2026-06-26T04:17:17.227968,14.88143934,.0022142,97.5456,1.5671,276.8346,83.0353,0,U,40011,999,65014,.9977E-4,.87E-5,0
UNISAT-6,2014-033C,2026-06-26T03:25:19.083072,14.88286575,.0045756,97.7883,329.6973,40.5030,319.9578,0,U,40012,999,64749,.27418E-3,.2527E-4,0
DEIMOS-2,2014-033D,2026-06-26T05:26:10.239360,14.93749309,.0001307,97.5830,51.3978,53.6740,306.4600,0,U,40013,999,63907,.10868E-3,.1097E-4,0
BUGSAT-1 (TITA),2014-033E,2026-06-26T01:56:45.896928,15.15677577,.0028658,98.0426,270.1505,148.3898,211.9061,0,U,40014,999,65718,.37061E-3,.7052E-4,0
SAUDISAT 4,2014-033G,2026-06-25T23:28:44.434848,14.79554971,.0045789,97.7592,322.8092,46.1738,314.3245,0,U,40016,999,64737,.81739E-4,.57E-5,0
APRIZESAT 9,2014-033J,2026-06-26T04:00:27.923904,14.74226706,.00664,97.9070,310.1466,170.2639,189.9875,0,U,40018,999,64488,.11654E-3,.745E-5,0
BRITE-CA1 (TORONTO),2014-033L,2026-06-25T22:31:26.661792,14.72689124,.0077307,97.9748,305.7055,248.4979,110.7974,0,U,40020,999,64350,.12688E-3,.793E-5,0
DUCHIFAT-1,2014-033M,2026-06-25T17:10:11.457696,15.66313669,.0001518,98.0450,237.0839,101.6443,258.4986,0,U,40021,999,65708,.13462E-2,.141113E-2,0
NANOSATC-BR1,2014-033Q,2026-06-26T00:36:38.858400,15.31726656,.0005106,98.0722,210.1973,141.8822,218.2780,0,U,40024,999,65533,.64467E-3,.19699E-3,0
QB50P1,2014-033R,2026-06-25T23:32:54.168000,15.18384896,.0008708,98.0964,188.7440,184.1181,175.9981,0,U,40025,999,65436,.48855E-3,.9982E-4,0
